{
  "norad_id": 65802,
  "name": "STARLINK-34919",
  "history": [
    {
      "epoch": "2026-03-28T13:58:58.525248Z",
      "apogee_km": 550.9921054194256,
      "perigee_km": 548.0256874465722,
      "latitude_deg": 4.9880195810605133e-05,
      "longitude_deg": -84.15395589377891,
      "height_km": 552.4067246820711,
      "semi_major_axis_km": 6927.645896432999,
      "eccentricity": 0.0002141,
      "inclination_deg": 97.6024,
      "raan_deg": 311.5909,
      "arg_perigee_deg": 83.6583,
      "mean_anomaly_deg": 276.4888,
      "mean_motion_rev_day": 15.05650736
    },
    {
      "epoch": "2026-03-29T04:20:16.512288Z",
      "apogee_km": 550.9682722458283,
      "perigee_km": 548.0143315379028,
      "latitude_deg": -2.020789379188176e-05,
      "longitude_deg": 60.52166858498755,
      "height_km": 552.4347685630344,
      "semi_major_axis_km": 6927.628301891866,
      "eccentricity": 0.0002132,
      "inclination_deg": 97.6021,
      "raan_deg": 312.181,
      "arg_perigee_deg": 85.4084,
      "mean_anomaly_deg": 274.7386,
      "mean_motion_rev_day": 15.05656472
    },
    {
      "epoch": "2026-03-30T04:15:46.496736Z",
      "apogee_km": 550.8903281306675,
      "perigee_km": 548.0943369320576,
      "latitude_deg": -2.342046184366634e-05,
      "longitude_deg": 61.6469697741735,
      "height_km": 552.3067359028804,
      "semi_major_axis_km": 6927.629332531363,
      "eccentricity": 0.0002018,
      "inclination_deg": 97.6018,
      "raan_deg": 313.1638,
      "arg_perigee_deg": 79.8016,
      "mean_anomaly_deg": 280.3438,
      "mean_motion_rev_day": 15.05656136
    },
    {
      "epoch": "2026-03-30T04:15:46.497600Z",
      "apogee_km": 550.890466683255,
      "perigee_km": 548.094198379471,
      "latitude_deg": -2.5684700124996708e-05,
      "longitude_deg": 61.64696646484763,
      "height_km": 552.3067113684253,
      "semi_major_axis_km": 6927.629332531363,
      "eccentricity": 0.00020182,
      "inclination_deg": 97.6018,
      "raan_deg": 313.1638,
      "arg_perigee_deg": 79.8016,
      "mean_anomaly_deg": 280.3438,
      "mean_motion_rev_day": 15.05656136
    },
    {
      "epoch": "2026-03-30T13:49:58.546848Z",
      "apogee_km": 550.96753774219,
      "perigee_km": 548.0454577148494,
      "latitude_deg": 1.2438213017846897e-05,
      "longitude_deg": -81.90386983068429,
      "height_km": 552.4078150350821,
      "semi_major_axis_km": 6927.64349772852,
      "eccentricity": 0.0002109,
      "inclination_deg": 97.6022,
      "raan_deg": 313.5562,
      "arg_perigee_deg": 83.6966,
      "mean_anomaly_deg": 276.4501,
      "mean_motion_rev_day": 15.05651518
    },
    {
      "epoch": "2026-03-30T17:01:22.408896Z",
      "apogee_km": 551.0775499648862,
      "perigee_km": 547.8686809594037,
      "latitude_deg": -3.574737117565004e-05,
      "longitude_deg": -129.75309555189267,
      "height_km": 552.4168045540034,
      "semi_major_axis_km": 6927.610115462145,
      "eccentricity": 0.0002316,
      "inclination_deg": 97.6026,
      "raan_deg": 313.6874,
      "arg_perigee_deg": 85.7938,
      "mean_anomaly_deg": 274.3553,
      "mean_motion_rev_day": 15.05662401
    },
    {
      "epoch": "2026-03-31T13:45:28.514016Z",
      "apogee_km": 550.9625847139396,
      "perigee_km": 548.0238839685326,
      "latitude_deg": -2.5482349002363404e-05,
      "longitude_deg": -80.77909116385852,
      "height_km": 552.4631953464112,
      "semi_major_axis_km": 6927.630234341236,
      "eccentricity": 0.0002121,
      "inclination_deg": 97.6034,
      "raan_deg": 314.5384,
      "arg_perigee_deg": 86.421,
      "mean_anomaly_deg": 273.7259,
      "mean_motion_rev_day": 15.05655842
    },
    {
      "epoch": "2026-04-01T04:06:46.518336Z",
      "apogee_km": 550.7902229131796,
      "perigee_km": 548.2121716344463,
      "latitude_deg": -5.340361703180765e-05,
      "longitude_deg": 63.895856401641815,
      "height_km": 552.4873107762719,
      "semi_major_axis_km": 6927.638197273813,
      "eccentricity": 0.00018607,
      "inclination_deg": 97.6026,
      "raan_deg": 315.1279,
      "arg_perigee_deg": 86.6175,
      "mean_anomaly_deg": 273.5264,
      "mean_motion_rev_day": 15.05653246
    },
    {
      "epoch": "2026-04-02T08:49:22.932192Z",
      "apogee_km": 551.1706446134649,
      "perigee_km": 547.8812516924227,
      "latitude_deg": 5.10908587524195e-05,
      "longitude_deg": -6.755063117835004,
      "height_km": 552.2999631920003,
      "semi_major_axis_km": 6927.6629481529435,
      "eccentricity": 0.00023741,
      "inclination_deg": 97.6052,
      "raan_deg": 316.3078,
      "arg_perigee_deg": 79.945,
      "mean_anomaly_deg": 280.2045,
      "mean_motion_rev_day": 15.05645177
    },
    {
      "epoch": "2026-04-03T15:07:42.387744Z",
      "apogee_km": 551.2930346611502,
      "perigee_km": 547.6449573436557,
      "latitude_deg": -4.48086295315613e-05,
      "longitude_deg": -101.33761352283368,
      "height_km": 552.3239291350433,
      "semi_major_axis_km": 6927.605996002402,
      "eccentricity": 0.0002633,
      "inclination_deg": 97.6013,
      "raan_deg": 317.5509,
      "arg_perigee_deg": 83.5186,
      "mean_anomaly_deg": 276.634,
      "mean_motion_rev_day": 15.05663744
    },
    {
      "epoch": "2026-04-04T21:25:59.145024Z",
      "apogee_km": 551.3947988363971,
      "perigee_km": 547.4627125134757,
      "latitude_deg": -4.541791544406875e-05,
      "longitude_deg": 164.09529573341456,
      "height_km": 552.0466043027725,
      "semi_major_axis_km": 6927.565755674936,
      "eccentricity": 0.0002838,
      "inclination_deg": 97.6023,
      "raan_deg": 318.7982,
      "arg_perigee_deg": 76.9886,
      "mean_anomaly_deg": 283.1657,
      "mean_motion_rev_day": 15.05676863
    },
    {
      "epoch": "2026-04-05T14:58:41.238624Z",
      "apogee_km": 551.3060327200055,
      "perigee_km": 547.6765097161497,
      "latitude_deg": -5.259804948475503e-06,
      "longitude_deg": -99.08284943073758,
      "height_km": 552.3061266332286,
      "semi_major_axis_km": 6927.628271218077,
      "eccentricity": 0.00026196,
      "inclination_deg": 97.6029,
      "raan_deg": 319.516,
      "arg_perigee_deg": 82.2111,
      "mean_anomaly_deg": 277.9413,
      "mean_motion_rev_day": 15.05656482
    },
    {
      "epoch": "2026-04-05T19:45:47.165184Z",
      "apogee_km": 551.3213135108381,
      "perigee_km": 547.6261259529329,
      "latitude_deg": 1.3834679694575e-06,
      "longitude_deg": -170.85735679913913,
      "height_km": 552.2651250291597,
      "semi_major_axis_km": 6927.610719731885,
      "eccentricity": 0.0002667,
      "inclination_deg": 97.6028,
      "raan_deg": 319.7127,
      "arg_perigee_deg": 81.6183,
      "mean_anomaly_deg": 278.5346,
      "mean_motion_rev_day": 15.05662204
    }
  ]
}